ONEWEB-0401             
1 50481U 21132N   24088.84273156  .00000090  00000+0  19600-3 0  9992
2 50481  87.9165 136.7647 0001978  89.2682 270.8677 13.18685457114810
ONEWEB-0402             
1 50482U 21132P   24088.88383708  .00000019  00000+0  16685-4 0  9994
2 50482  87.9165 136.7537 0001569  85.0889 275.0422 13.18684440114847
ONEWEB-0403             
1 50483U 21132Q   24088.83167973  .00000054  00000+0  10515-3 0  9998
2 50483  87.9166 136.7703 0002205  92.1645 267.9740 13.18686875114792
ONEWEB-0404             
1 50484U 21132R   24088.52559841 -.00000303  00000+0 -88988-3 0  9992
2 50484  87.9045 182.2643 0002462 103.0015 257.1387 13.11414727109448
ONEWEB-0405             
1 50485U 21132S   24088.84747807  .00002272  00000+0  57285-2 0  9999
2 50485  87.9168 136.7562 0002251  82.8539 277.2849 13.18673493115199
ONEWEB-0406             
1 50486U 21132T   24088.53291249  .00000046  00000+0  83171-4 0  9992
2 50486  87.9168 136.8284 0002455 101.9347 258.2060 13.18686878114787
ONEWEB-0407             
1 50487U 21132U   24088.83009454  .00000189  00000+0  44660-3 0  9998
2 50487  87.9163 136.7751 0002071  91.9441 268.1928 13.18686193114769
ONEWEB-0409             
1 50488U 21132V   24088.52396655 -.00000427  00000+0 -12414-2 0  9995
2 50488  87.9035 182.2682 0002610 110.4290 249.7118 13.11418331109338
